OBJECT_NAME,OBJECT_ID,EPOCH,MEAN_MOTION,ECCENTRICITY,INCLINATION,RA_OF_ASC_NODE,ARG_OF_PERICENTER,MEAN_ANOMALY,EPHEMERIS_TYPE,CLASSIFICATION_TYPE,NORAD_CAT_ID,ELEMENT_SET_NO,REV_AT_EPOCH,BSTAR,MEAN_MOTION_DOT,MEAN_MOTION_DDOT
SAUDISAT 2,2004-025F,2026-05-16T23:32:59.980128,14.56663250,.0025418,98.5510,136.1580,35.1327,325.1540,0,U,28371,999,16120,.45613E-4,.155E-5,0
COSMOS 2407,2004-028A,2026-05-17T03:49:21.188928,13.76331913,.003881,82.9588,97.8132,341.3408,29.6605,0,U,28380,999,9561,.1801E-4,.33E-6,0
COSMOS 2414,2005-002A,2026-05-17T04:15:14.151168,13.87923211,.0041429,82.9503,67.1004,58.8056,301.7158,0,U,28521,999,7951,.40068E-4,.64E-6,0
INMARSAT 4-F1,2005-009A,2026-05-17T01:31:22.166400,1.00270653,.0002525,5.1274,42.6937,11.7036,21.3444,0,U,28628,999,7736,0,.39E-6,0
SJ-7,2005-024A,2026-05-17T01:03:57.875040,15.21031515,.0017232,97.7305,166.3199,136.6665,223.5928,0,U,28737,999,14329,.27431E-3,.6038E-4,0
CUBESAT XI-V,2005-043F,2026-05-16T20:59:18.771648,14.72541900,.0012953,98.2950,291.8469,307.9672,52.0364,0,U,28895,999,9714,.12875E-3,.766E-5,0
HINODE (SOLAR-B),2006-041A,2026-05-17T01:10:01.455744,14.68574140,.0018165,98.0562,153.6598,31.3976,328.8310,0,U,29479,999,5030,.79023E-4,.411E-5,0
SHIJIAN-6 02B (SJ-6 02B),2006-046B,2026-05-17T05:18:30.657024,15.01283851,.0012006,97.7159,166.4715,158.7690,201.4034,0,U,29506,999,6609,.10565E-3,.1299E-4,0
DMSP 5D-3 F17 (USA 191),2006-050A,2026-05-17T04:45:12.506688,14.14987404,.0010838,98.7386,144.4020,139.1920,221.0067,0,U,29522,999,804,.42237E-4,.39E-6,0
LAPAN-TUBSAT,2007-001A,2026-05-17T05:04:05.155392,14.85915828,.0010846,98.1337,135.7379,289.9599,70.0447,0,U,29709,999,4655,.48103E-4,.362E-5,0
HAIYANG-1B,2007-010A,2026-05-16T16:20:08.099520,14.31018657,.00123666,98.3487,119.7506,297.7969,62.1961,0,U,31113,999,99612,.31276035E-4,.41E-6,0
COSMO-SKYMED 2,2007-059A,2026-05-17T04:10:08.759136,14.82158318,.0001455,97.8884,321.2219,90.1587,269.9793,0,U,32376,999,99740,.34817E-4,.225E-5,0
CARTOSAT-2A,2008-021A,2026-05-17T04:48:40.493952,14.79190600,.0010975,97.7660,186.9638,205.7114,154.3554,0,U,32783,999,97422,.21115E-4,.107E-5,0
CUTE-1.7+APD II (CO-65),2008-021C,2026-05-17T05:18:46.838016,15.09133515,.0010317,97.8265,118.0072,127.6161,232.6005,0,U,32785,999,98052,.24553E-3,.3833E-4,0
SEEDS II (CO-66),2008-021J,2026-05-16T22:01:46.795008,15.31610553,.0004884,97.7519,133.3524,76.8002,283.3783,0,U,32791,999,98250,.48763E-3,.14819E-3,0
YUBILEINY (RS30),2008-025A,2026-05-17T02:44:45.094848,12.43178045,.002018,82.5074,14.7702,21.7962,338.3972,0,U,32953,999,81583,.23898E-4,.13E-6,0
FENGYUN 3A,2008-026A,2026-05-17T02:31:08.001408,14.19564106,.0007997,98.6875,78.5223,211.5795,148.4902,0,U,32958,999,93099,.35657E-4,.32E-6,0
HUANJING 1A (HJ-1A),2008-041A,2026-05-17T05:11:22.958880,14.83912154,.0017412,97.6669,124.2563,238.3405,121.6112,0,U,33320,999,95381,.64066E-4,.482E-5,0
HUANJING 1B (HJ-1B),2008-041B,2026-05-17T05:44:07.965312,14.83258132,.0034848,97.6507,127.5424,286.1567,73.5813,0,U,33321,999,95382,.10602E-4,.35E-6,0
SHIJIAN-6 03A (SJ-6 03A),2008-053A,2026-05-17T04:17:38.764032,15.16832483,.0013019,97.8430,169.4263,116.0294,244.2281,0,U,33408,999,95826,.26441E-3,.5138E-4,0
SHIJIAN-6 03B (SJ-6 03B),2008-053B,2026-05-17T05:38:08.333088,15.04214229,.00206,97.8595,156.6144,140.4759,219.7973,0,U,33409,999,95809,.50624E-4,.641E-5,0
CHUANGXIN 1-02 (CX-1-02),2008-056B,2026-05-17T03:56:18.203712,14.30147059,.0013254,98.6154,163.7372,228.2996,131.7053,0,U,33434,999,91418,.1037E-3,.224E-5,0
