SAUDISAT 2              
1 28371U 04025F   26136.98124977  .00000155  00000+0  45613-4 0  9990
2 28371  98.5510 136.1580 0025418  35.1327 325.1540 14.56663250161204
COSMOS 2407             
1 28380U 04028A   26137.15927302  .00000033  00000+0  18010-4 0  9992
2 28380  82.9588  97.8132 0038810 341.3408  29.6605 13.76331913 95612
COSMOS 2414             
1 28521U 05002A   26137.17724712  .00000064  00000+0  40068-4 0  9996
2 28521  82.9503  67.1004 0041429  58.8056 301.7158 13.87923211 79511
INMARSAT 4-F1           
1 28628U 05009A   26137.06345100  .00000039  00000+0  00000+0 0  9998
2 28628   5.1274  42.6937 0002525  11.7036  21.3444  1.00270653 77365
SJ-7                    
1 28737U 05024A   26137.04441985  .00006038  00000+0  27431-3 0  9998
2 28737  97.7305 166.3199 0017232 136.6665 223.5928 15.21031515143297
CUBESAT XI-V            
1 28895U 05043F   26136.87452282  .00000766  00000+0  12875-3 0  9994
2 28895  98.2950 291.8469 0012953 307.9672  52.0364 14.72541900 97144
HINODE (SOLAR-B)        
1 29479U 06041A   26137.04862796  .00000411  00000+0  79023-4 0  9993
2 29479  98.0562 153.6598 0018165  31.3976 328.8310 14.68574140 50303
SHIJIAN-6 02B (SJ-6 02B)
1 29506U 06046B   26137.22118816  .00001299  00000+0  10565-3 0  9996
2 29506  97.7159 166.4715 0012006 158.7690 201.4034 15.01283851 66096
DMSP 5D-3 F17 (USA 191) 
1 29522U 06050A   26137.19806142  .00000039  00000+0  42237-4 0  9994
2 29522  98.7386 144.4020 0010838 139.1920 221.0067 14.14987404  8045
LAPAN-TUBSAT            
1 29709U 07001A   26137.21117078  .00000362  00000+0  48103-4 0  9991
2 29709  98.1337 135.7379 0010846 289.9599  70.0447 14.85915828 46558
HAIYANG-1B              
1 31113U 07010A   26136.68064930  .00000041  00000+0  31276-4 0  9998
2 31113  98.3487 119.7506 0012366 297.7969  62.1961 14.31018657996124
COSMO-SKYMED 2          
1 32376U 07059A   26137.17371249  .00000225  00000+0  34817-4 0  9990
2 32376  97.8884 321.2219 0001455  90.1587 269.9793 14.82158318997407
CARTOSAT-2A             
1 32783U 08021A   26137.20046868  .00000107  00000+0  21115-4 0  9998
2 32783  97.7660 186.9638 0010975 205.7114 154.3554 14.79190600974221
CUTE-1.7+APD II (CO-65) 
1 32785U 08021C   26137.22137544  .00003833  00000+0  24553-3 0  9991
2 32785  97.8265 118.0072 0010317 127.6161 232.6005 15.09133515980524
SEEDS II (CO-66)        
1 32791U 08021J   26136.91790272  .00014819  00000+0  48763-3 0  9991
2 32791  97.7519 133.3524 0004884  76.8002 283.3783 15.31610553982508
YUBILEINY (RS30)        
1 32953U 08025A   26137.11441082  .00000013  00000+0  23898-4 0  9994
2 32953  82.5074  14.7702 0020180  21.7962 338.3972 12.43178045815834
FENGYUN 3A              
1 32958U 08026A   26137.10495372  .00000032  00000+0  35657-4 0  9997
2 32958  98.6875  78.5223 0007997 211.5795 148.4902 14.19564106930996
HUANJING 1A (HJ-1A)     
1 33320U 08041A   26137.21623795  .00000482  00000+0  64066-4 0  9997
2 33320  97.6669 124.2563 0017412 238.3405 121.6112 14.83912154953817
HUANJING 1B (HJ-1B)     
1 33321U 08041B   26137.23898108  .00000035  00000+0  10602-4 0  9993
2 33321  97.6507 127.5424 0034848 286.1567  73.5813 14.83258132953826
SHIJIAN-6 03A (SJ-6 03A)
1 33408U 08053A   26137.17892088  .00005138  00000+0  26441-3 0  9992
2 33408  97.8430 169.4263 0013019 116.0294 244.2281 15.16832483958263
SHIJIAN-6 03B (SJ-6 03B)
1 33409U 08053B   26137.23481867  .00000641  00000+0  50624-4 0  9994
2 33409  97.8595 156.6144 0020600 140.4759 219.7973 15.04214229958098
CHUANGXIN 1-02 (CX-1-02)
1 33434U 08056B   26137.16409958  .00000224  00000+0  10370-3 0  9998
2 33434  98.6154 163.7372 0013254 228.2996 131.7053 14.30147059914181
